COMMENT,ORIGINATOR,NORAD_CAT_ID,OBJECT_NAME,OBJECT_TYPE,CLASSIFICATION_TYPE,INTLDES,EPOCH,EPOCH_MICROSECONDS,MEAN_MOTION,ECCENTRICITY,INCLINATION,RA_OF_ASC_NODE,ARG_OF_PERICENTER,MEAN_ANOMALY,EPHEMERIS_TYPE,ELEMENT_SET_NO,REV_AT_EPOCH,BSTAR,MEAN_MOTION_DOT,MEAN_MOTION_DDOT,FILE,TLE_LINE0,TLE_LINE1,TLE_LINE2,OBJECT_ID,OBJECT_NUMBER,SEMIMAJOR_AXIS,PERIOD,APOGEE,PERIGEE,DECAYED
"GENERATED VIA SPACETRACK.ORG API","18 SPCS","53903","STARLINK-5022","PAYLOAD","U","22119T","2023-02-21 19:31:57","942912","15.088434","0.0001264","53.217","275.2056","84.2196","275.8941","0","999","2341","-0.0000026636","-0.0000033","0","3820054","0 STARLINK-5022","1 53903U 22119T   23052.81386508 -.00000330  00000-0 -26636-5 0  9992","2 53903  53.2170 275.2056 0001264  84.2196 275.8941 15.08843400 23419","2022-119T","53903","6917.870","95.437","540.609","538.861","0"
"GENERATED VIA SPACETRACK.ORG API","18 SPCS","53903","STARLINK-5022","PAYLOAD","U","22119T","2023-02-21 21:07:20","900064","15.08845817","0.0001147","53.2167","274.9075","89.2612","270.8512","0","999","2384","-0.0000045193","-0.0000036","0","3821329","0 STARLINK-5022","1 53903U 22119T   23052.88010301 -.00000360  00000-0 -45193-5 0  9996","2 53903  53.2167 274.9075 0001147  89.2612 270.8512 15.08845817 23840","2022-119T","53903","6917.863","95.437","540.521","538.934","0"
"GENERATED VIA SPACETRACK.ORG API","18 SPCS","53903","STARLINK-5022","PAYLOAD","U","22119T","2023-02-22 14:36:36","159840","15.08833228","0.0001082","53.2157","271.6368","94.4384","265.6732","0","999","2395","-0.000065732","-0.00001334","0","3824148","0 STARLINK-5022","1 53903U 22119T   23053.60875185 -.00001334  00000-0 -65732-4 0  9998","2 53903  53.2157 271.6368 0001082  94.4384 265.6732 15.08833228 23951","2022-119T","53903","6917.901","95.438","540.515","539.018","0"
"GENERATED VIA SPACETRACK.ORG API","18 SPCS","53903","STARLINK-5022","PAYLOAD","U","22119T","2023-02-22 14:36:36","159840","15.08833228","0.0001082","53.2157","271.6368","94.4384","265.6732","0","999","2353","-0.000065732","-0.00001334","0","3824262","0 STARLINK-5022","1 53903U 22119T   23053.60875185 -.00001334  00000-0 -65732-4 0  9998","2 53903  53.2157 271.6368 0001082  94.4384 265.6732 15.08833228 23535","2022-119T","53903","6917.901","95.438","540.515","539.018","0"
"GENERATED VIA SPACETRACK.ORG API","18 SPCS","53903","STARLINK-5022","PAYLOAD","U","22119T","2023-02-22 20:58:08","671872","15.08834277","0.0001133","53.215","270.448","89.9435","270.1687","0","999","2399","-0.000052133","-0.00001117","0","3825529","0 STARLINK-5022","1 53903U 22119T   23053.87371148 -.00001117  00000-0 -52133-4 0  9997","2 53903  53.2150 270.4480 0001133  89.9435 270.1687 15.08834277 23998","2022-119T","53903","6917.898","95.438","540.547","538.979","0"
"GENERATED VIA SPACETRACK.ORG API","18 SPCS","53903","STARLINK-5022","PAYLOAD","U","22119T","2023-02-23 00:08:54","827232","15.08838809","0.0001038","53.215","269.8536","92.0215","268.0896","0","999","2401","-0.000091828","-0.00001749","0","3828819","0 STARLINK-5022","1 53903U 22119T   23054.00619013 -.00001749  00000-0 -91828-4 0  9994","2 53903  53.2150 269.8536 0001038  92.0215 268.0896 15.08838809 24014","2022-119T","53903","6917.884","95.438","540.467","539.031","0"
"GENERATED VIA SPACETRACK.ORG API","18 SPCS","53903","STARLINK-5022","PAYLOAD","U","22119T","2023-02-23 17:38:08","749536","15.08842022","0.0001139","53.215","266.5822","86.3264","273.7858","0","999","2370","0.000029395","0.0000018","0","3829042","0 STARLINK-5022","1 53903U 22119T   23054.73482349  .00000180  00000-0  29395-4 0  9990","2 53903  53.2150 266.5822 0001139  86.3264 273.7858 15.08842022 23706","2022-119T","53903","6917.874","95.437","540.527","538.951","0"
"GENERATED VIA SPACETRACK.ORG API","18 SPCS","53903","STARLINK-5022","PAYLOAD","U","22119T","2023-02-23 20:48:54","746784","15.08844449","0.0000957","53.2151","265.9874","83.9837","276.1265","0","999","2414","0.000061237","0.00000687","0","3830532","0 STARLINK-5022","1 53903U 22119T   23054.86730031  .00000687  00000-0  61237-4 0  9991","2 53903  53.2151 265.9874 0000957  83.9837 276.1265 15.08844449 24146","2022-119T","53903","6917.867","95.437","540.394","539.070","0"
"GENERATED VIA SPACETRACK.ORG API","18 SPCS","53903","STARLINK-5022","PAYLOAD","U","22119T","2023-02-23 23:59:40","764768","15.08851144","0.0001052","53.2149","265.3925","83.341","276.7702","0","999","2374","0.000022487","0.0000007","0","3830604","0 STARLINK-5022","1 53903U 22119T   23054.99977737  .00000070  00000-0  22487-4 0  9991","2 53903  53.2149 265.3925 0001052  83.3410 276.7702 15.08851144 23749","2022-119T","53903","6917.846","95.437","540.439","538.984","0"
"GENERATED VIA SPACETRACK.ORG API","18 SPCS","53903","STARLINK-5022","PAYLOAD","U","22119T","2023-02-23 23:59:40","764768","15.08851144","0.0001052","53.2149","265.3925","83.341","276.7702","0","999","2416","0.000022487","0.0000007","0","3832867","0 STARLINK-5022","1 53903U 22119T   23054.99977737  .00000070  00000-0  22487-4 0  9991","2 53903  53.2149 265.3925 0001052  83.3410 276.7702 15.08851144 24166","2022-119T","53903","6917.846","95.437","540.439","538.984","0"
"GENERATED VIA SPACETRACK.ORG API","18 SPCS","53903","STARLINK-5022","PAYLOAD","U","22119T","2023-02-24 20:39:42","206688","15.08838102","0.0000974","53.2151","261.5269","88.9391","271.1712","0","999","2387","0.000044652","0.00000423","0","3833745","0 STARLINK-5022","1 53903U 22119T   23055.86090517  .00000423  00000-0  44652-4 0  9990","2 53903  53.2151 261.5269 0000974  88.9391 271.1712 15.08838102 23875","2022-119T","53903","6917.886","95.438","540.425","539.077","0"
"GENERATED VIA SPACETRACK.ORG API","18 SPCS","53903","STARLINK-5022","PAYLOAD","U","22119T","2023-02-25 14:08:57","564096","15.08835441","0.0001206","53.2148","258.2561","97.079","263.0339","0","999","2440","-0.00014145","-0.00002538","0","3837605","0 STARLINK-5022","1 53903U 22119T   23056.58955514 -.00002538  00000-0 -14145-3 0  9991","2 53903  53.2148 258.2561 0001206  97.0790 263.0339 15.08835441 24400","2022-119T","53903","6917.894","95.438","540.594","538.925","0"
"GENERATED VIA SPACETRACK.ORG API","18 SPCS","53903","STARLINK-5022","PAYLOAD","U","22119T","2023-02-25 20:30:30","182400","15.08834675","0.0001126","53.2146","257.067","96.1479","263.9642","0","999","2402","-0.0001373","-0.00002472","0","3837738","0 STARLINK-5022","1 53903U 22119T   23056.85451600 -.00002472  00000-0 -13730-3 0  9994","2 53903  53.2146 257.0670 0001126  96.1479 263.9642 15.08834675 24023","2022-119T","53903","6917.897","95.438","540.541","538.983","0"
"GENERATED VIA SPACETRACK.ORG API","18 SPCS","53903","STARLINK-5022","PAYLOAD","U","22119T","2023-02-25 22:05:53","311488","15.08835445","0.0001051","53.2149","256.7697","90.7325","269.3787","0","999","2445","-0.00013398","-0.00002419","0","3839003","0 STARLINK-5022","1 53903U 22119T   23056.92075592 -.00002419  00000-0 -13398-3 0  9995","2 53903  53.2149 256.7697 0001051  90.7325 269.3787 15.08835445 24451","2022-119T","53903","6917.894","95.438","540.486","539.032","0"
"GENERATED VIA SPACETRACK.ORG API","18 SPCS","53903","STARLINK-5022","PAYLOAD","U","22119T","2023-02-25 23:41:16","767168","15.08810609","0.0001025","53.2161","256.4725","91.2586","268.8524","0","999","2404","0.00021465","0.00003127","0","3839097","0 STARLINK-5022","1 53903U 22119T   23056.98699962  .00003127  00000-0  21465-3 0  9993","2 53903  53.2161 256.4725 0001025  91.2586 268.8524 15.08810609 24043","2022-119T","53903","6917.970","95.439","540.544","539.126","0"
"GENERATED VIA SPACETRACK.ORG API","18 SPCS","53903","STARLINK-5022","PAYLOAD","U","22119T","2023-02-26 06:02:48","483456","15.08842793","0.0001071","53.2158","255.2827","88.9058","271.2057","0","999","2408","-0.000088756","-0.000017","0","3840683","0 STARLINK-5022","1 53903U 22119T   23057.25195004 -.00001700  00000-0 -88756-4 0  9996","2 53903  53.2158 255.2827 0001071  88.9058 271.2057 15.08842793 24089","2022-119T","53903","6917.872","95.437","540.478","538.996","0"
"GENERATED VIA SPACETRACK.ORG API","18 SPCS","53903","STARLINK-5022","PAYLOAD","U","22119T","2023-02-26 06:02:48","483456","15.08842793","0.0001071","53.2158","255.2827","88.9058","271.2057","0","999","2450","-0.000088756","-0.000017","0","3841853","0 STARLINK-5022","1 53903U 22119T   23057.25195004 -.00001700  00000-0 -88756-4 0  9996","2 53903  53.2158 255.2827 0001071  88.9058 271.2057 15.08842793 24506","2022-119T","53903","6917.872","95.437","540.478","538.996","0"
"GENERATED VIA SPACETRACK.ORG API","18 SPCS","53903","STARLINK-5022","PAYLOAD","U","22119T","2023-02-26 17:10:30","17280","15.08845928","0.0000953","53.2149","253.2001","87.4319","272.6782","0","999","2457","0.000037444","0.00000308","0","3843368","0 STARLINK-5022","1 53903U 22119T   23057.71562520  .00000308  00000-0  37444-4 0  9997","2 53903  53.2149 253.2001 0000953  87.4319 272.6782 15.08845928 24570","2022-119T","53903","6917.862","95.437","540.387","539.068","0"
"GENERATED VIA SPACETRACK.ORG API","18 SPCS","53903","STARLINK-5022","PAYLOAD","U","22119T","2023-02-26 21:56:39","112512","15.08848978","0.0001025","53.2149","252.3088","91.0541","269.0568","0","999","2418","0.000069512","0.00000819","0","3843414","0 STARLINK-5022","1 53903U 22119T   23057.91434158  .00000819  00000-0  69512-4 0  9992","2 53903  53.2149 252.3088 0001025  91.0541 269.0568 15.08848978 24181","2022-119T","53903","6917.853","95.437","540.427","539.009","0"
"GENERATED VIA SPACETRACK.ORG API","18 SPCS","53903","STARLINK-5022","PAYLOAD","U","22119T","2023-02-27 12:15:08","130528","15.08834003","0.0000933","53.2164","249.6334","85.1144","274.9955","0","999","2427","0.000077157","0.0000094","0","3845049","0 STARLINK-5022","1 53903U 22119T   23058.51051077  .00000940  00000-0  77157-4 0  9993","2 53903  53.2164 249.6334 0000933  85.1144 274.9955 15.08834003 24270","2022-119T","53903","6917.899","95.438","540.409","539.118","0"
